UM5-RIBAT               
1 60554U 24149CQ  26068.79561721  .00004725  00000+0  37993-3 0  9991
2 60554  97.6776 147.9138 0003272  87.0399 273.1199 15.00468196 85282
STARLINK-33943          
1 63884U 25094W   26068.86345958  .00012774  00000+0  10760-2 0  9995
2 63884  70.0014 233.8376 0003131 269.1852  90.8948 14.98344036 47232
